<?xml version="1.0" encoding="UTF-8"?>
<ndm xmlns:xsi="http://www.w3.org/2001/XMLSchema-instance" xsi:noNamespaceSchemaLocation="https://sanaregistry.org/r/ndmxml_unqualified/ndmxml-2.0.0-master-2.0.xsd">
<omm id="CCSDS_OMM_VERS" version="2.0">
<header><CREATION_DATE/><ORIGINATOR/></header><body><segment><metadata><OBJECT_NAME>ONEWEB-0721</OBJECT_NAME><OBJECT_ID>2023-068R</OBJECT_ID><CENTER_NAME>EARTH</CENTER_NAME><REF_FRAME>TEME</REF_FRAME><TIME_SYSTEM>UTC</TIME_SYSTEM><MEAN_ELEMENT_THEORY>SGP4</MEAN_ELEMENT_THEORY></metadata><data><meanElements><EPOCH>2024-10-28T06:00:00.999648</EPOCH><MEAN_MOTION>14.56577140</MEAN_MOTION><ECCENTRICITY>.0009718</ECCENTRICITY><INCLINATION>86.6704</INCLINATION><RA_OF_ASC_NODE>280.5010</RA_OF_ASC_NODE><ARG_OF_PERICENTER>142.0535</ARG_OF_PERICENTER><MEAN_ANOMALY>35.1012</MEAN_ANOMALY></meanElements><tleParameters><EPHEMERIS_TYPE>0</EPHEMERIS_TYPE><CLASSIFICATION_TYPE>U</CLASSIFICATION_TYPE><NORAD_CAT_ID>56725</NORAD_CAT_ID><ELEMENT_SET_NO>999</ELEMENT_SET_NO><REV_AT_EPOCH>7894</REV_AT_EPOCH><BSTAR>-.26345E-1</BSTAR><MEAN_MOTION_DOT>-.115209E-2</MEAN_MOTION_DOT><MEAN_MOTION_DDOT>0</MEAN_MOTION_DDOT></tleParameters></data></segment></body></omm>
<omm id="CCSDS_OMM_VERS" version="2.0">
<header><CREATION_DATE/><ORIGINATOR/></header><body><segment><metadata><OBJECT_NAME>ONEWEB-0015</OBJECT_NAME><OBJECT_ID>2024-188A</OBJECT_ID><CENTER_NAME>EARTH</CENTER_NAME><REF_FRAME>TEME</REF_FRAME><TIME_SYSTEM>UTC</TIME_SYSTEM><MEAN_ELEMENT_THEORY>SGP4</MEAN_ELEMENT_THEORY></metadata><data><meanElements><EPOCH>2024-10-28T06:00:00.999648</EPOCH><MEAN_MOTION>14.91541062</MEAN_MOTION><ECCENTRICITY>.0004161</ECCENTRICITY><INCLINATION>86.5107</INCLINATION><RA_OF_ASC_NODE>167.1270</RA_OF_ASC_NODE><ARG_OF_PERICENTER>166.9569</ARG_OF_PERICENTER><MEAN_ANOMALY>225.4078</MEAN_ANOMALY></meanElements><tleParameters><EPHEMERIS_TYPE>0</EPHEMERIS_TYPE><CLASSIFICATION_TYPE>U</CLASSIFICATION_TYPE><NORAD_CAT_ID>61594</NORAD_CAT_ID><ELEMENT_SET_NO>999</ELEMENT_SET_NO><REV_AT_EPOCH>222</REV_AT_EPOCH><BSTAR>-.50809E-3</BSTAR><MEAN_MOTION_DOT>-.505E-4</MEAN_MOTION_DOT><MEAN_MOTION_DDOT>0</MEAN_MOTION_DDOT></tleParameters></data></segment></body></omm>
<omm id="CCSDS_OMM_VERS" version="2.0">
<header><CREATION_DATE/><ORIGINATOR/></header><body><segment><metadata><OBJECT_NAME>ONEWEB-0687</OBJECT_NAME><OBJECT_ID>2024-188B</OBJECT_ID><CENTER_NAME>EARTH</CENTER_NAME><REF_FRAME>TEME</REF_FRAME><TIME_SYSTEM>UTC</TIME_SYSTEM><MEAN_ELEMENT_THEORY>SGP4</MEAN_ELEMENT_THEORY></metadata><data><meanElements><EPOCH>2024-10-28T06:00:00.999648</EPOCH><MEAN_MOTION>14.91460990</MEAN_MOTION><ECCENTRICITY>.0003844</ECCENTRICITY><INCLINATION>86.5106</INCLINATION><RA_OF_ASC_NODE>167.1271</RA_OF_ASC_NODE><ARG_OF_PERICENTER>165.4270</ARG_OF_PERICENTER><MEAN_ANOMALY>225.3141</MEAN_ANOMALY></meanElements><tleParameters><EPHEMERIS_TYPE>0</EPHEMERIS_TYPE><CLASSIFICATION_TYPE>U</CLASSIFICATION_TYPE><NORAD_CAT_ID>61595</NORAD_CAT_ID><ELEMENT_SET_NO>999</ELEMENT_SET_NO><REV_AT_EPOCH>243</REV_AT_EPOCH><BSTAR>-.44596E-2</BSTAR><MEAN_MOTION_DOT>-.44216E-3</MEAN_MOTION_DOT><MEAN_MOTION_DDOT>0</MEAN_MOTION_DDOT></tleParameters></data></segment></body></omm>
<omm id="CCSDS_OMM_VERS" version="2.0">
<header><CREATION_DATE/><ORIGINATOR/></header><body><segment><metadata><OBJECT_NAME>ONEWEB-0688</OBJECT_NAME><OBJECT_ID>2024-188C</OBJECT_ID><CENTER_NAME>EARTH</CENTER_NAME><REF_FRAME>TEME</REF_FRAME><TIME_SYSTEM>UTC</TIME_SYSTEM><MEAN_ELEMENT_THEORY>SGP4</MEAN_ELEMENT_THEORY></metadata><data><meanElements><EPOCH>2024-10-28T06:00:00.999648</EPOCH><MEAN_MOTION>14.91401026</MEAN_MOTION><ECCENTRICITY>.0003516</ECCENTRICITY><INCLINATION>86.5118</INCLINATION><RA_OF_ASC_NODE>167.1313</RA_OF_ASC_NODE><ARG_OF_PERICENTER>161.6175</ARG_OF_PERICENTER><MEAN_ANOMALY>225.9571</MEAN_ANOMALY></meanElements><tleParameters><EPHEMERIS_TYPE>0</EPHEMERIS_TYPE><CLASSIFICATION_TYPE>U</CLASSIFICATION_TYPE><NORAD_CAT_ID>61596</NORAD_CAT_ID><ELEMENT_SET_NO>999</ELEMENT_SET_NO><REV_AT_EPOCH>220</REV_AT_EPOCH><BSTAR>-.45315E-2</BSTAR><MEAN_MOTION_DOT>-.44856E-3</MEAN_MOTION_DOT><MEAN_MOTION_DDOT>0</MEAN_MOTION_DDOT></tleParameters></data></segment></body></omm>
<omm id="CCSDS_OMM_VERS" version="2.0">
<header><CREATION_DATE/><ORIGINATOR/></header><body><segment><metadata><OBJECT_NAME>ONEWEB-0689</OBJECT_NAME><OBJECT_ID>2024-188D</OBJECT_ID><CENTER_NAME>EARTH</CENTER_NAME><REF_FRAME>TEME</REF_FRAME><TIME_SYSTEM>UTC</TIME_SYSTEM><MEAN_ELEMENT_THEORY>SGP4</MEAN_ELEMENT_THEORY></metadata><data><meanElements><EPOCH>2024-10-28T06:00:00.999648</EPOCH><MEAN_MOTION>14.91050377</MEAN_MOTION><ECCENTRICITY>.0001999</ECCENTRICITY><INCLINATION>86.5101</INCLINATION><RA_OF_ASC_NODE>167.1314</RA_OF_ASC_NODE><ARG_OF_PERICENTER>147.0539</ARG_OF_PERICENTER><MEAN_ANOMALY>230.6197</MEAN_ANOMALY></meanElements><tleParameters><EPHEMERIS_TYPE>0</EPHEMERIS_TYPE><CLASSIFICATION_TYPE>U</CLASSIFICATION_TYPE><NORAD_CAT_ID>61597</NORAD_CAT_ID><ELEMENT_SET_NO>999</ELEMENT_SET_NO><REV_AT_EPOCH>227</REV_AT_EPOCH><BSTAR>-.46086E-2</BSTAR><MEAN_MOTION_DOT>-.45216E-3</MEAN_MOTION_DOT><MEAN_MOTION_DDOT>0</MEAN_MOTION_DDOT></tleParameters></data></segment></body></omm>
<omm id="CCSDS_OMM_VERS" version="2.0">
<header><CREATION_DATE/><ORIGINATOR/></header><body><segment><metadata><OBJECT_NAME>ONEWEB-0690</OBJECT_NAME><OBJECT_ID>2024-188E</OBJECT_ID><CENTER_NAME>EARTH</CENTER_NAME><REF_FRAME>TEME</REF_FRAME><TIME_SYSTEM>UTC</TIME_SYSTEM><MEAN_ELEMENT_THEORY>SGP4</MEAN_ELEMENT_THEORY></metadata><data><meanElements><EPOCH>2024-10-28T06:00:00.999648</EPOCH><MEAN_MOTION>14.91741702</MEAN_MOTION><ECCENTRICITY>.0004766</ECCENTRICITY><INCLINATION>86.5111</INCLINATION><RA_OF_ASC_NODE>167.1279</RA_OF_ASC_NODE><ARG_OF_PERICENTER>173.1480</ARG_OF_PERICENTER><MEAN_ANOMALY>225.4583</MEAN_ANOMALY></meanElements><tleParameters><EPHEMERIS_TYPE>0</EPHEMERIS_TYPE><CLASSIFICATION_TYPE>U</CLASSIFICATION_TYPE><NORAD_CAT_ID>61598</NORAD_CAT_ID><ELEMENT_SET_NO>999</ELEMENT_SET_NO><REV_AT_EPOCH>226</REV_AT_EPOCH><BSTAR>-.44506E-2</BSTAR><MEAN_MOTION_DOT>-.4444E-3</MEAN_MOTION_DOT><MEAN_MOTION_DDOT>0</MEAN_MOTION_DDOT></tleParameters></data></segment></body></omm>
<omm id="CCSDS_OMM_VERS" version="2.0">
<header><CREATION_DATE/><ORIGINATOR/></header><body><segment><metadata><OBJECT_NAME>ONEWEB-0691</OBJECT_NAME><OBJECT_ID>2024-188F</OBJECT_ID><CENTER_NAME>EARTH</CENTER_NAME><REF_FRAME>TEME</REF_FRAME><TIME_SYSTEM>UTC</TIME_SYSTEM><MEAN_ELEMENT_THEORY>SGP4</MEAN_ELEMENT_THEORY></metadata><data><meanElements><EPOCH>2024-10-28T04:00:00.999936</EPOCH><MEAN_MOTION>14.91624771</MEAN_MOTION><ECCENTRICITY>.0004313</ECCENTRICITY><INCLINATION>86.5123</INCLINATION><RA_OF_ASC_NODE>167.1687</RA_OF_ASC_NODE><ARG_OF_PERICENTER>171.3482</ARG_OF_PERICENTER><MEAN_ANOMALY>136.0034</MEAN_ANOMALY></meanElements><tleParameters><EPHEMERIS_TYPE>0</EPHEMERIS_TYPE><CLASSIFICATION_TYPE>U</CLASSIFICATION_TYPE><NORAD_CAT_ID>61599</NORAD_CAT_ID><ELEMENT_SET_NO>999</ELEMENT_SET_NO><REV_AT_EPOCH>241</REV_AT_EPOCH><BSTAR>-.75378E-3</BSTAR><MEAN_MOTION_DOT>-.752E-4</MEAN_MOTION_DOT><MEAN_MOTION_DDOT>0</MEAN_MOTION_DDOT></tleParameters></data></segment></body></omm>
<omm id="CCSDS_OMM_VERS" version="2.0">
<header><CREATION_DATE/><ORIGINATOR/></header><body><segment><metadata><OBJECT_NAME>ONEWEB-0692</OBJECT_NAME><OBJECT_ID>2024-188G</OBJECT_ID><CENTER_NAME>EARTH</CENTER_NAME><REF_FRAME>TEME</REF_FRAME><TIME_SYSTEM>UTC</TIME_SYSTEM><MEAN_ELEMENT_THEORY>SGP4</MEAN_ELEMENT_THEORY></metadata><data><meanElements><EPOCH>2024-10-28T06:00:00.999648</EPOCH><MEAN_MOTION>14.90812432</MEAN_MOTION><ECCENTRICITY>.0000927</ECCENTRICITY><INCLINATION>86.5136</INCLINATION><RA_OF_ASC_NODE>167.1361</RA_OF_ASC_NODE><ARG_OF_PERICENTER>144.0489</ARG_OF_PERICENTER><MEAN_ANOMALY>226.8398</MEAN_ANOMALY></meanElements><tleParameters><EPHEMERIS_TYPE>0</EPHEMERIS_TYPE><CLASSIFICATION_TYPE>U</CLASSIFICATION_TYPE><NORAD_CAT_ID>61600</NORAD_CAT_ID><ELEMENT_SET_NO>999</ELEMENT_SET_NO><REV_AT_EPOCH>236</REV_AT_EPOCH><BSTAR>-.46228E-2</BSTAR><MEAN_MOTION_DOT>-.45086E-3</MEAN_MOTION_DOT><MEAN_MOTION_DDOT>0</MEAN_MOTION_DDOT></tleParameters></data></segment></body></omm>
<omm id="CCSDS_OMM_VERS" version="2.0">
<header><CREATION_DATE/><ORIGINATOR/></header><body><segment><metadata><OBJECT_NAME>ONEWEB-0693</OBJECT_NAME><OBJECT_ID>2024-188H</OBJECT_ID><CENTER_NAME>EARTH</CENTER_NAME><REF_FRAME>TEME</REF_FRAME><TIME_SYSTEM>UTC</TIME_SYSTEM><MEAN_ELEMENT_THEORY>SGP4</MEAN_ELEMENT_THEORY></metadata><data><meanElements><EPOCH>2024-10-28T06:00:00.999648</EPOCH><MEAN_MOTION>14.90972492</MEAN_MOTION><ECCENTRICITY>.0001657</ECCENTRICITY><INCLINATION>86.5094</INCLINATION><RA_OF_ASC_NODE>167.1309</RA_OF_ASC_NODE><ARG_OF_PERICENTER>147.5142</ARG_OF_PERICENTER><MEAN_ANOMALY>227.8472</MEAN_ANOMALY></meanElements><tleParameters><EPHEMERIS_TYPE>0</EPHEMERIS_TYPE><CLASSIFICATION_TYPE>U</CLASSIFICATION_TYPE><NORAD_CAT_ID>61601</NORAD_CAT_ID><ELEMENT_SET_NO>999</ELEMENT_SET_NO><REV_AT_EPOCH>236</REV_AT_EPOCH><BSTAR>-.46461E-2</BSTAR><MEAN_MOTION_DOT>-.45493E-3</MEAN_MOTION_DOT><MEAN_MOTION_DDOT>0</MEAN_MOTION_DDOT></tleParameters></data></segment></body></omm>

</ndm>
